{
  "norad_id": 59513,
  "name": "STARLINK-31658",
  "history": [
    {
      "epoch": "2026-04-13T05:40:01.105824Z",
      "apogee_km": 483.75091520560636,
      "perigee_km": 482.3830655780821,
      "latitude_deg": 2.4310558549179563e-05,
      "longitude_deg": 156.2054148462652,
      "height_km": 482.7980809457301,
      "semi_major_axis_km": 6861.203990391844,
      "eccentricity": 9.968e-05,
      "inclination_deg": 43.0021,
      "raan_deg": 82.6398,
      "arg_perigee_deg": 273.8148,
      "mean_anomaly_deg": 86.259,
      "mean_motion_rev_day": 15.27574024
    },
    {
      "epoch": "2026-04-14T14:37:17.084064Z",
      "apogee_km": 484.4907791004489,
      "perigee_km": 481.3127459456491,
      "latitude_deg": 1.8082891659209467e-05,
      "longitude_deg": 12.778642879793274,
      "height_km": 482.256944128857,
      "semi_major_axis_km": 6861.038762523049,
      "eccentricity": 0.0002316,
      "inclination_deg": 43.0026,
      "raan_deg": 74.883,
      "arg_perigee_deg": 285.4199,
      "mean_anomaly_deg": 74.6397,
      "mean_motion_rev_day": 15.27629205
    },
    {
      "epoch": "2026-04-15T14:09:39.019680Z",
      "apogee_km": 483.7085426653957,
      "perigee_km": 482.4145206223275,
      "latitude_deg": -4.006382200887693e-05,
      "longitude_deg": 13.184054348644484,
      "height_km": 482.8299935834934,
      "semi_major_axis_km": 6861.198531643861,
      "eccentricity": 9.43e-05,
      "inclination_deg": 43.0027,
      "raan_deg": 69.3466,
      "arg_perigee_deg": 270.7221,
      "mean_anomaly_deg": 89.3522,
      "mean_motion_rev_day": 15.27575847
    },
    {
      "epoch": "2026-04-16T13:42:00.262368Z",
      "apogee_km": 483.7044379735653,
      "perigee_km": 482.4543243489179,
      "latitude_deg": -1.7962635586537738e-05,
      "longitude_deg": 13.590046623464437,
      "height_km": 482.8674506973575,
      "semi_major_axis_km": 6861.216381161242,
      "eccentricity": 9.11e-05,
      "inclination_deg": 43.0027,
      "raan_deg": 63.8078,
      "arg_perigee_deg": 268.947,
      "mean_anomaly_deg": 91.1277,
      "mean_motion_rev_day": 15.27569886
    },
    {
      "epoch": "2026-04-17T21:05:07.730880Z",
      "apogee_km": 483.5813879586358,
      "perigee_km": 482.5298415784964,
      "latitude_deg": 2.76289755557637e-05,
      "longitude_deg": -105.86667463000214,
      "height_km": 482.4525987049519,
      "semi_major_axis_km": 6861.192614768566,
      "eccentricity": 7.663e-05,
      "inclination_deg": 42.9984,
      "raan_deg": 56.4211,
      "arg_perigee_deg": 316.0957,
      "mean_anomaly_deg": 43.9834,
      "mean_motion_rev_day": 15.27577823
    },
    {
      "epoch": "2026-04-18T04:55:54.648768Z",
      "apogee_km": 483.65530561802916,
      "perigee_km": 482.44595268651574,
      "latitude_deg": -3.179030389643192e-06,
      "longitude_deg": 134.2715626480324,
      "height_km": 482.77404198692267,
      "semi_major_axis_km": 6861.187629152272,
      "eccentricity": 8.813e-05,
      "inclination_deg": 43.0037,
      "raan_deg": 54.5771,
      "arg_perigee_deg": 275.053,
      "mean_anomaly_deg": 85.0221,
      "mean_motion_rev_day": 15.27579488
    },
    {
      "epoch": "2026-04-19T12:19:02.608032Z",
      "apogee_km": 483.6563672273296,
      "perigee_km": 482.4881777365972,
      "latitude_deg": 3.8060920587485276e-05,
      "longitude_deg": 14.81398386903412,
      "height_km": 482.89691584512025,
      "semi_major_axis_km": 6861.209272481963,
      "eccentricity": 8.513e-05,
      "inclination_deg": 43.0041,
      "raan_deg": 47.1916,
      "arg_perigee_deg": 265.2889,
      "mean_anomaly_deg": 94.7866,
      "mean_motion_rev_day": 15.2757226
    },
    {
      "epoch": "2026-04-20T11:51:23.277024Z",
      "apogee_km": 483.5881551408638,
      "perigee_km": 482.4537312865332,
      "latitude_deg": -1.197311668646764e-05,
      "longitude_deg": 15.220992567252384,
      "height_km": 482.76198457689793,
      "semi_major_axis_km": 6861.157943213698,
      "eccentricity": 8.267e-05,
      "inclination_deg": 43.0078,
      "raan_deg": 41.6515,
      "arg_perigee_deg": 273.6426,
      "mean_anomaly_deg": 86.4331,
      "mean_motion_rev_day": 15.27589402
    },
    {
      "epoch": "2026-04-21T11:23:43.913184Z",
      "apogee_km": 483.7178593733379,
      "perigee_km": 482.38061417579047,
      "latitude_deg": 2.836004463459903e-07,
      "longitude_deg": 15.629304199172992,
      "height_km": 482.91374542562517,
      "semi_major_axis_km": 6861.186236774564,
      "eccentricity": 9.745e-05,
      "inclination_deg": 43.0057,
      "raan_deg": 36.1125,
      "arg_perigee_deg": 262.4755,
      "mean_anomaly_deg": 97.5986,
      "mean_motion_rev_day": 15.27579953
    },
    {
      "epoch": "2026-04-22T03:05:17.510496Z",
      "apogee_km": 483.72677599808776,
      "perigee_km": 482.37018240514044,
      "latitude_deg": -4.12622488065649e-05,
      "longitude_deg": 135.9024945240893,
      "height_km": 482.9234449741889,
      "semi_major_axis_km": 6861.185479201614,
      "eccentricity": 9.886e-05,
      "inclination_deg": 43.0051,
      "raan_deg": 32.4202,
      "arg_perigee_deg": 261.6872,
      "mean_anomaly_deg": 98.3867,
      "mean_motion_rev_day": 15.27580206
    },
    {
      "epoch": "2026-04-23T04:11:48.338592Z",
      "apogee_km": 483.7749615823759,
      "perigee_km": 482.3524974471329,
      "latitude_deg": 1.8654170626535495e-05,
      "longitude_deg": 112.33553352692292,
      "height_km": 482.9249607896445,
      "semi_major_axis_km": 6861.200729514754,
      "eccentricity": 0.00010366,
      "inclination_deg": 43.004,
      "raan_deg": 26.5128,
      "arg_perigee_deg": 263.1837,
      "mean_anomaly_deg": 96.8897,
      "mean_motion_rev_day": 15.27575113
    },
    {
      "epoch": "2026-04-24T17:51:33.525792Z",
      "apogee_km": 483.7821651004506,
      "perigee_km": 482.34954594421833,
      "latitude_deg": -3.705453310483768e-05,
      "longitude_deg": -103.01135406152089,
      "height_km": 482.908433911642,
      "semi_major_axis_km": 6861.202855522334,
      "eccentricity": 0.0001044,
      "inclination_deg": 43.0039,
      "raan_deg": 17.651,
      "arg_perigee_deg": 264.7331,
      "mean_anomaly_deg": 95.3401,
      "mean_motion_rev_day": 15.27574403
    },
    {
      "epoch": "2026-04-25T03:16:29.683488Z",
      "apogee_km": 483.7922358520382,
      "perigee_km": 482.3269587067225,
      "latitude_deg": 3.3692544983783364e-05,
      "longitude_deg": 113.15254581193439,
      "height_km": 482.9385487890096,
      "semi_major_axis_km": 6861.19659727938,
      "eccentricity": 0.00010678,
      "inclination_deg": 43.0038,
      "raan_deg": 15.4355,
      "arg_perigee_deg": 261.9864,
      "mean_anomaly_deg": 98.0867,
      "mean_motion_rev_day": 15.27576493
    },
    {
      "epoch": "2026-04-26T02:48:50.814720Z",
      "apogee_km": 483.8205045831901,
      "perigee_km": 482.3098050927392,
      "latitude_deg": 7.403068420676992e-06,
      "longitude_deg": 113.55885027359533,
      "height_km": 482.95300885244006,
      "semi_major_axis_km": 6861.202154837964,
      "eccentricity": 0.00011009,
      "inclination_deg": 43.0038,
      "raan_deg": 9.8966,
      "arg_perigee_deg": 261.549,
      "mean_anomaly_deg": 98.5237,
      "mean_motion_rev_day": 15.27574637
    },
    {
      "epoch": "2026-04-27T02:21:11.288448Z",
      "apogee_km": 483.85526884749925,
      "perigee_km": 482.2482412172958,
      "latitude_deg": 4.4208830922242186e-05,
      "longitude_deg": 113.96786966993842,
      "height_km": 482.9623836321424,
      "semi_major_axis_km": 6861.188755032397,
      "eccentricity": 0.00011711,
      "inclination_deg": 43.0038,
      "raan_deg": 4.3576,
      "arg_perigee_deg": 260.4193,
      "mean_anomaly_deg": 99.6527,
      "mean_motion_rev_day": 15.27579112
    },
    {
      "epoch": "2026-04-28T01:53:32.293536Z",
      "apogee_km": 483.90254430326513,
      "perigee_km": 482.22347143733987,
      "latitude_deg": -6.578325625618642e-06,
      "longitude_deg": 114.37467583060506,
      "height_km": 482.91982637280375,
      "semi_major_axis_km": 6861.200007870302,
      "eccentricity": 0.00012236,
      "inclination_deg": 43.0041,
      "raan_deg": 358.8187,
      "arg_perigee_deg": 264.5441,
      "mean_anomaly_deg": 95.5271,
      "mean_motion_rev_day": 15.27575354
    },
    {
      "epoch": "2026-04-28T23:51:43.249248Z",
      "apogee_km": 483.8992736090122,
      "perigee_km": 482.18919279844795,
      "latitude_deg": -1.1005942826029204e-05,
      "longitude_deg": 138.7569590323402,
      "height_km": 482.87580117290975,
      "semi_major_axis_km": 6861.18123320373,
      "eccentricity": 0.00012462,
      "inclination_deg": 43.0042,
      "raan_deg": 353.6489,
      "arg_perigee_deg": 266.3431,
      "mean_anomaly_deg": 93.7278,
      "mean_motion_rev_day": 15.27581624
    },
    {
      "epoch": "2026-04-30T15:05:38.208480Z",
      "apogee_km": 483.9386702592092,
      "perigee_km": 482.16903191489655,
      "latitude_deg": 2.6094449197738404e-05,
      "longitude_deg": -100.56439648529094,
      "height_km": 482.9181273282888,
      "semi_major_axis_km": 6861.190851087053,
      "eccentricity": 0.00012896,
      "inclination_deg": 43.0041,
      "raan_deg": 344.4177,
      "arg_perigee_deg": 264.3423,
      "mean_anomaly_deg": 95.7282,
      "mean_motion_rev_day": 15.27578412
    },
    {
      "epoch": "2026-05-02T00:02:55.494816Z",
      "apogee_km": 483.9147802403595,
      "perigee_km": 482.20771411646183,
      "latitude_deg": -1.5580083315800083e-05,
      "longitude_deg": 116.00582553905299,
      "height_km": 482.94436287281644,
      "semi_major_axis_km": 6861.19824717841,
      "eccentricity": 0.0001244,
      "inclination_deg": 43.0036,
      "raan_deg": 336.6634,
      "arg_perigee_deg": 262.8549,
      "mean_anomaly_deg": 97.2161,
      "mean_motion_rev_day": 15.27575942
    }
  ]
}